[{"CCSDS_OMM_VERS":"3.0","COMMENT":"GENERATED VIA SPACE-TRACK.ORG API","CREATION_DATE":"2026-03-28T11:26:42","ORIGINATOR":"18 SPCS","OBJECT_NAME":"FENGYUN 1C DEB","OBJECT_ID":"1999-025CGV","CENTER_NAME":"EARTH","REF_FRAME":"TEME","TIME_SYSTEM":"UTC","MEAN_ELEMENT_THEORY":"SGP4","EPOCH":"2026-03-28T02:51:24.899616","MEAN_MOTION":"14.52810792","ECCENTRICITY":"0.01040349","INCLINATION":"99.0877","RA_OF_ASC_NODE":"231.6811","ARG_OF_PERICENTER":"205.6666","MEAN_ANOMALY":"153.9343","EPHEMERIS_TYPE":"0","CLASSIFICATION_TYPE":"U","NORAD_CAT_ID":"31807","ELEMENT_SET_NO":"999","REV_AT_EPOCH":"66835","BSTAR":"0.00090017213000","MEAN_MOTION_DOT":"0.00003916","MEAN_MOTION_DDOT":"0.0000000000000","SEMIMAJOR_AXIS":"7094.620","PERIOD":"99.118","APOAPSIS":"790.294","PERIAPSIS":"642.676","OBJECT_TYPE":"DEBRIS","RCS_SIZE":"SMALL","COUNTRY_CODE":"PRC","LAUNCH_DATE":"1999-05-10","SITE":"TSC","DECAY_DATE":null,"FILE":"5103506","GP_ID":"317396431","TLE_LINE0":"0 FENGYUN 1C DEB","TLE_LINE1":"1 31807U 99025CGV 26087.11903819  .00003916  00000-0  90017-3 0  9998","TLE_LINE2":"2 31807  99.0877 231.6811 0104035 205.6666 153.9343 14.52810792668352"},{"CCSDS_OMM_VERS":"3.0","COMMENT":"GENERATED VIA SPACE-TRACK.ORG API","CREATION_DATE":"2026-03-28T04:18:04","ORIGINATOR":"18 SPCS","OBJECT_NAME":"FENGYUN 1C DEB","OBJECT_ID":"1999-025CGW","CENTER_NAME":"EARTH","REF_FRAME":"TEME","TIME_SYSTEM":"UTC","MEAN_ELEMENT_THEORY":"SGP4","EPOCH":"2026-03-27T20:06:24.005376","MEAN_MOTION":"14.62714469","ECCENTRICITY":"0.00357993","INCLINATION":"99.2041","RA_OF_ASC_NODE":"290.3114","ARG_OF_PERICENTER":"180.6044","MEAN_ANOMALY":"179.5117","EPHEMERIS_TYPE":"0","CLASSIFICATION_TYPE":"U","NORAD_CAT_ID":"31808","ELEMENT_SET_NO":"999","REV_AT_EPOCH":"59136","BSTAR":"0.00419550900000","MEAN_MOTION_DOT":"0.00021574","MEAN_MOTION_DDOT":"0.0000000000000","SEMIMAJOR_AXIS":"7062.560","PERIOD":"98.447","APOAPSIS":"709.708","PERIAPSIS":"659.141","OBJECT_TYPE":"DEBRIS","RCS_SIZE":"SMALL","COUNTRY_CODE":"PRC","LAUNCH_DATE":"1999-05-10","SITE":"TSC","DECAY_DATE":null,"FILE":"5102610","GP_ID":"317341485","TLE_LINE0":"0 FENGYUN 1C DEB","TLE_LINE1":"1 31808U 99025CGW 26086.83777784  .00021574  00000-0  41955-2 0  9993","TLE_LINE2":"2 31808  99.2041 290.3114 0035799 180.6044 179.5117 14.62714469591362"},{"CCSDS_OMM_VERS":"3.0","COMMENT":"GENERATED VIA SPACE-TRACK.ORG API","CREATION_DATE":"2023-02-08T19:16:15","ORIGINATOR":"18 SPCS","OBJECT_NAME":"FENGYUN 1C DEB","OBJECT_ID":"1999-025CGX","CENTER_NAME":"EARTH","REF_FRAME":"TEME","TIME_SYSTEM":"UTC","MEAN_ELEMENT_THEORY":"SGP4","EPOCH":"2022-08-01T12:58:10.609248","MEAN_MOTION":"14.70850953","ECCENTRICITY":"0.00200420","INCLINATION":"98.8022","RA_OF_ASC_NODE":"131.8860","ARG_OF_PERICENTER":"343.6055","MEAN_ANOMALY":"16.4499","EPHEMERIS_TYPE":"0","CLASSIFICATION_TYPE":"U","NORAD_CAT_ID":"31809","ELEMENT_SET_NO":"999","REV_AT_EPOCH":"80101","BSTAR":"-0.02270500000000","MEAN_MOTION_DOT":"-0.00136538","MEAN_MOTION_DDOT":"0.0000000000000","SEMIMAJOR_AXIS":"7036.490","PERIOD":"97.903","APOAPSIS":"672.457","PERIAPSIS":"644.252","OBJECT_TYPE":"DEBRIS","RCS_SIZE":"SMALL","COUNTRY_CODE":"PRC","LAUNCH_DATE":"1999-05-10","SITE":"TSC","DECAY_DATE":"2023-05-07","FILE":"3779530","GP_ID":"224780941","TLE_LINE0":"0 FENGYUN 1C DEB","TLE_LINE1":"1 31809U 99025CGX 22213.54040057 -.00136538  00000-0 -22705-1 0  9996","TLE_LINE2":"2 31809  98.8022 131.8860 0020042 343.6055  16.4499 14.70850953801018"},{"CCSDS_OMM_VERS":"3.0","COMMENT":"GENERATED VIA SPACE-TRACK.ORG API","CREATION_DATE":"2026-03-21T03:14:42","ORIGINATOR":"18 SPCS","OBJECT_NAME":"FENGYUN 1C DEB","OBJECT_ID":"1999-025CGY","CENTER_NAME":"EARTH","REF_FRAME":"TEME","TIME_SYSTEM":"UTC","MEAN_ELEMENT_THEORY":"SGP4","EPOCH":"2026-03-20T18:41:20.509440","MEAN_MOTION":"14.46510121","ECCENTRICITY":"0.02114723","INCLINATION":"98.2644","RA_OF_ASC_NODE":"97.8178","ARG_OF_PERICENTER":"201.4899","MEAN_ANOMALY":"157.7317","EPHEMERIS_TYPE":"0","CLASSIFICATION_TYPE":"U","NORAD_CAT_ID":"31810","ELEMENT_SET_NO":"999","REV_AT_EPOCH":"65831","BSTAR":"0.00041999862000","MEAN_MOTION_DOT":"0.00001945","MEAN_MOTION_DDOT":"0.0000000000000","SEMIMAJOR_AXIS":"7115.207","PERIOD":"99.550","APOAPSIS":"887.539","PERIAPSIS":"586.605","OBJECT_TYPE":"DEBRIS","RCS_SIZE":"SMALL","COUNTRY_CODE":"PRC","LAUNCH_DATE":"1999-05-10","SITE":"TSC","DECAY_DATE":null,"FILE":"5094740","GP_ID":"316644842","TLE_LINE0":"0 FENGYUN 1C DEB","TLE_LINE1":"1 31810U 99025CGY 26079.77870960  .00001945  00000-0  42000-3 0  9994","TLE_LINE2":"2 31810  98.2644  97.8178 0211472 201.4899 157.7317 14.46510121658317"},{"CCSDS_OMM_VERS":"3.0","COMMENT":"GENERATED VIA SPACE-TRACK.ORG API","CREATION_DATE":"2017-06-08T23:12:40","ORIGINATOR":"18 SPCS","OBJECT_NAME":"FENGYUN 1C DEB","OBJECT_ID":"1999-025CGZ","CENTER_NAME":"EARTH","REF_FRAME":"TEME","TIME_SYSTEM":"UTC","MEAN_ELEMENT_THEORY":"SGP4","EPOCH":"2017-04-06T13:49:19.286688","MEAN_MOTION":"15.53128870","ECCENTRICITY":"0.00022190","INCLINATION":"98.9583","RA_OF_ASC_NODE":"28.0060","ARG_OF_PERICENTER":"124.2457","MEAN_ANOMALY":"235.5905","EPHEMERIS_TYPE":"0","CLASSIFICATION_TYPE":"U","NORAD_CAT_ID":"31811","ELEMENT_SET_NO":"999","REV_AT_EPOCH":"52637","BSTAR":"0.00626640000000","MEAN_MOTION_DOT":"0.00413111","MEAN_MOTION_DDOT":"0.0000000000000","SEMIMAJOR_AXIS":"6785.734","PERIOD":"92.716","APOAPSIS":"409.104","PERIAPSIS":"406.093","OBJECT_TYPE":"DEBRIS","RCS_SIZE":"SMALL","COUNTRY_CODE":"PRC","LAUNCH_DATE":"1999-05-10","SITE":"TSC","DECAY_DATE":"2017-05-05","FILE":"2165267","GP_ID":"111805507","TLE_LINE0":"0 FENGYUN 1C DEB","TLE_LINE1":"1 31811U 99025CGZ 17096.57591767 +.00413111 +00000-0 +62664-2 0  9996","TLE_LINE2":"2 31811 098.9583 028.0060 0002219 124.2457 235.5905 15.53128870526375"},{"CCSDS_OMM_VERS":"3.0","COMMENT":"GENERATED VIA SPACE-TRACK.ORG API","CREATION_DATE":"2026-03-10T09:36:17","ORIGINATOR":"18 SPCS","OBJECT_NAME":"FENGYUN 1C DEB","OBJECT_ID":"1999-025CHA","CENTER_NAME":"EARTH","REF_FRAME":"TEME","TIME_SYSTEM":"UTC","MEAN_ELEMENT_THEORY":"SGP4","EPOCH":"2024-11-23T22:04:27.346080","MEAN_MOTION":"14.02691673","ECCENTRICITY":"0.00647820","INCLINATION":"98.7889","RA_OF_ASC_NODE":"17.5005","ARG_OF_PERICENTER":"209.3240","MEAN_ANOMALY":"150.4285","EPHEMERIS_TYPE":"0","CLASSIFICATION_TYPE":"U","NORAD_CAT_ID":"31812","ELEMENT_SET_NO":"999","REV_AT_EPOCH":"63253","BSTAR":"0.00120060000000","MEAN_MOTION_DOT":"0.00001846","MEAN_MOTION_DDOT":"0.0000000000000","SEMIMAJOR_AXIS":"7262.626","PERIOD":"102.660","APOAPSIS":"931.540","PERIAPSIS":"837.443","OBJECT_TYPE":"DEBRIS","RCS_SIZE":"SMALL","COUNTRY_CODE":"PRC","LAUNCH_DATE":"1999-05-10","SITE":"TSC","DECAY_DATE":null,"FILE":"5080188","GP_ID":"315455855","TLE_LINE0":"0 FENGYUN 1C DEB","TLE_LINE1":"1 31812U 99025CHA 24328.91976095  .00001846  00000-0  12006-2 0  9995","TLE_LINE2":"2 31812  98.7889  17.5005 0064782 209.3240 150.4285 14.02691673632534"},{"CCSDS_OMM_VERS":"3.0","COMMENT":"GENERATED VIA SPACE-TRACK.ORG API","CREATION_DATE":"2026-03-27T03:25:15","ORIGINATOR":"18 SPCS","OBJECT_NAME":"FENGYUN 1C DEB","OBJECT_ID":"1999-025CHB","CENTER_NAME":"EARTH","REF_FRAME":"TEME","TIME_SYSTEM":"UTC","MEAN_ELEMENT_THEORY":"SGP4","EPOCH":"2026-03-26T12:46:37.355520","MEAN_MOTION":"14.50340855","ECCENTRICITY":"0.01350992","INCLINATION":"99.4152","RA_OF_ASC_NODE":"182.2739","ARG_OF_PERICENTER":"26.6821","MEAN_ANOMALY":"334.1239","EPHEMERIS_TYPE":"0","CLASSIFICATION_TYPE":"U","NORAD_CAT_ID":"31813","ELEMENT_SET_NO":"999","REV_AT_EPOCH":"98760","BSTAR":"0.00034719786000","MEAN_MOTION_DOT":"0.00001461","MEAN_MOTION_DDOT":"0.0000000000000","SEMIMAJOR_AXIS":"7102.672","PERIOD":"99.287","APOAPSIS":"820.494","PERIAPSIS":"628.581","OBJECT_TYPE":"DEBRIS","RCS_SIZE":"SMALL","COUNTRY_CODE":"PRC","LAUNCH_DATE":"1999-05-10","SITE":"TSC","DECAY_DATE":null,"FILE":"5100202","GP_ID":"317185280","TLE_LINE0":"0 FENGYUN 1C DEB","TLE_LINE1":"1 31813U 99025CHB 26085.53237680  .00001461  00000-0  34720-3 0  9997","TLE_LINE2":"2 31813  99.4152 182.2739 0135099  26.6821 334.1239 14.50340855987602"},{"CCSDS_OMM_VERS":"3.0","COMMENT":"GENERATED VIA SPACE-TRACK.ORG API","CREATION_DATE":"2026-03-28T16:56:20","ORIGINATOR":"18 SPCS","OBJECT_NAME":"FENGYUN 1C DEB","OBJECT_ID":"1999-025CHC","CENTER_NAME":"EARTH","REF_FRAME":"TEME","TIME_SYSTEM":"UTC","MEAN_ELEMENT_THEORY":"SGP4","EPOCH":"2026-03-28T08:53:05.914176","MEAN_MOTION":"13.66597135","ECCENTRICITY":"0.02278950","INCLINATION":"99.5557","RA_OF_ASC_NODE":"141.0563","ARG_OF_PERICENTER":"304.4958","MEAN_ANOMALY":"53.4851","EPHEMERIS_TYPE":"0","CLASSIFICATION_TYPE":"U","NORAD_CAT_ID":"31814","ELEMENT_SET_NO":"999","REV_AT_EPOCH":"63242","BSTAR":"0.00051842000000","MEAN_MOTION_DOT":"0.00000469","MEAN_MOTION_DDOT":"0.0000000000000","SEMIMAJOR_AXIS":"7389.950","PERIOD":"105.371","APOAPSIS":"1180.228","PERIAPSIS":"843.402","OBJECT_TYPE":"DEBRIS","RCS_SIZE":"SMALL","COUNTRY_CODE":"PRC","LAUNCH_DATE":"1999-05-10","SITE":"TSC","DECAY_DATE":null,"FILE":"5104282","GP_ID":"317438672","TLE_LINE0":"0 FENGYUN 1C DEB","TLE_LINE1":"1 31814U 99025CHC 26087.37020734  .00000469  00000-0  51842-3 0  9993","TLE_LINE2":"2 31814  99.5557 141.0563 0227895 304.4958  53.4851 13.66597135632424"}]